{
    "links": {
        "self": "http://www.neowsapp.com/rest/v1/neo/3634907?api_key=iIulBulltgU6a56xZRHN4H3l9WmuAYTsLGpBGhQ2"
    },
    "id": "3634907",
    "neo_reference_id": "3634907",
    "name": "(2013 HQ)",
    "designation": "2013 HQ",
    "nasa_jpl_url": "http://ssd.jpl.nasa.gov/sbdb.cgi?sstr=3634907",
    "absolute_magnitude_h": 22.0,
    "estimated_diameter": {
        "kilometers": {
            "estimated_diameter_min": 0.1058168859,
            "estimated_diameter_max": 0.2366137501
        },
        "meters": {
            "estimated_diameter_min": 105.8168859331,
            "estimated_diameter_max": 236.6137501138
        },
        "miles": {
            "estimated_diameter_min": 0.0657515442,
            "estimated_diameter_max": 0.1470249225
        },
        "feet": {
            "estimated_diameter_min": 347.1682720448,
            "estimated_diameter_max": 776.2918559233
        }
    },
    "is_potentially_hazardous_asteroid": false,
    "close_approach_data": [
        {
            "close_approach_date": "2011-06-05",
            "close_approach_date_full": "2011-Jun-05 00:18",
            "epoch_date_close_approach": 1307233080000,
            "relative_velocity": {
                "kilometers_per_second": "28.4743762486",
                "kilometers_per_hour": "102507.7544948516",
                "miles_per_hour": "63694.332230426"
            },
            "miss_distance": {
                "astronomical": "0.1392756374",
                "lunar": "54.1782229486",
                "kilometers": "20835338.697932338",
                "miles": "12946479.1306807444"
            },
            "orbiting_body": "Venus"
        },
        {
            "close_approach_date": "2013-04-17",
            "close_approach_date_full": "2013-Apr-17 10:52",
            "epoch_date_close_approach": 1366195920000,
            "relative_velocity": {
                "kilometers_per_second": "25.614379158",
                "kilometers_per_hour": "92211.7649689188",
                "miles_per_hour": "57296.804738604"
            },
            "miss_distance": {
                "astronomical": "0.1178213404",
                "lunar": "45.8325014156",
                "kilometers": "17625821.564384948",
                "miles": "10952177.6608823624"
            },
            "orbiting_body": "Earth"
        },
        {
            "close_approach_date": "2014-09-16",
            "close_approach_date_full": "2014-Sep-16 12:13",
            "epoch_date_close_approach": 1410869580000,
            "relative_velocity": {
                "kilometers_per_second": "31.0097903179",
                "kilometers_per_hour": "111635.2451445145",
                "miles_per_hour": "69365.7999621568"
            },
            "miss_distance": {
                "astronomical": "0.4078895453",
                "lunar": "158.6690331217",
                "kilometers": "61019407.172148511",
                "miles": "37915701.4423350118"
            },
            "orbiting_body": "Earth"
        }
    ],
    "orbital_data": {
        "orbit_id": "10",
        "orbit_determination_date": "2017-04-06 08:46:04",
        "first_observation_date": "2013-04-16",
        "last_observation_date": "2013-05-04",
        "data_arc_in_days": 18,
        "observations_used": 41,
        "orbit_uncertainty": "8",
        "minimum_orbit_intersection": ".11615",
        "jupiter_tisserand_invariant": "4.353",
        "epoch_osculation": "2456402.5",
        "eccentricity": ".6798895109471802",
        "semi_major_axis": "1.400577208715394",
        "inclination": "32.99067960266453",
        "ascending_node_longitude": "36.72352938551292",
        "orbital_period": "605.4231302578291",
        "perihelion_distance": ".4483394552381182",
        "perihelion_argument": "54.36985879209597",
        "aphelion_distance": "2.352814962192671",
        "perihelion_time": "2456344.364306861082",
        "mean_anomaly": "34.56896257184227",
        "mean_motion": ".5946254479023427",
        "equinox": "J2000",
        "orbit_class": {
            "orbit_class_type": "APO",
            "orbit_class_description": "Near-Earth asteroid orbits which cross the Earth’s orbit similar to that of 1862 Apollo",
            "orbit_class_range": "a (semi-major axis) > 1.0 AU; q (perihelion) < 1.017 AU"
        }
    },
    "is_sentry_object": false
}